HAWK-2B                 
1 47508U 21006CZ  26068.67629241  .00009474  00000+0  29651-3 0  9991
2 47508  97.2334 114.1140 0007102 185.9063 174.2098 15.33301353284246
STARLINK-32654          
1 62322U 24239X   26068.61104601  .00029345  00000+0  99922-3 0  9992
2 62322  53.1603 194.1570 0001109  56.0007 304.1099 15.30193069 69379
